start=new Date('2021-10-17T00:00:00.000Z').valueOf();
sats=[{"DECAY_DATE":null,"OBJECT_NAME":"STARLINK-1303","PERIOD":"95.592","RA_OF_ASC_NODE":"154.3528","INCLINATION":"53.0534","CENTER_NAME":"EARTH","SITE":"AFETR","OBJECT_ID":"2020-019AN","BSTAR":"0.00001634900000","SEMIMAJOR_AXIS":"6925.364","FILE":"3166610","MEAN_MOTION_DDOT":"0.0000000000000","REV_AT_EPOCH":"8772","NORAD_CAT_ID":"45396","EPHEMERIS_TYPE":"0","RCS_SIZE":"LARGE","TIME_SYSTEM":"UTC","LAUNCH_DATE":"2020-03-18","REF_FRAME":"TEME","MEAN_ANOMALY":"283.5664","OBJECT_TYPE":"PAYLOAD","CLASSIFICATION_TYPE":"U","ELEMENT_SET_NO":"999","ECCENTRICITY":"0.00017930","EPOCH":"2021-10-16T02:38:06.202464","GP_ID":"187355980","TLE_LINE2":"2 45396  53.0534 154.3528 0001793  76.5524 283.5664 15.06394942 87727","MEAN_MOTION_DOT":"-0.00000038","PERIAPSIS":"545.987","APOAPSIS":"548.471","ARG_OF_PERICENTER":"76.5524","MEAN_ELEMENT_THEORY":"SGP4","TLE_LINE1":"1 45396U 20019AN  21289.10979401 -.00000038  00000-0  16349-4 0  9991","COUNTRY_CODE":"US","MEAN_MOTION":"15.06394942"},{"INCLINATION":"53.0527","RA_OF_ASC_NODE":"153.4106","PERIOD":"95.593","OBJECT_NAME":"STARLINK-1307","DECAY_DATE":null,"BSTAR":"0.00000619190000","OBJECT_ID":"2020-019AP","SITE":"AFETR","CENTER_NAME":"EARTH","NORAD_CAT_ID":"45397","REV_AT_EPOCH":"8786","MEAN_MOTION_DDOT":"0.0000000000000","FILE":"3166610","SEMIMAJOR_AXIS":"6925.408","TIME_SYSTEM":"UTC","RCS_SIZE":"LARGE","EPHEMERIS_TYPE":"0","MEAN_ANOMALY":"292.2952","OBJECT_TYPE":"PAYLOAD","REF_FRAME":"TEME","LAUNCH_DATE":"2020-03-18","TLE_LINE2":"2 45397  53.0527 153.4106 0001822  67.8230 292.2952 15.06380545 87868","GP_ID":"187355731","EPOCH":"2021-10-16T07:40:40.239552","ECCENTRICITY":"0.00018220","CLASSIFICATION_TYPE":"U","ELEMENT_SET_NO":"999","PERIAPSIS":"546.011","MEAN_MOTION_DOT":"-0.00000189","MEAN_MOTION":"15.06380545","TLE_LINE1":"1 45397U 20019AP  21289.31991018 -.00000189  00000-0  61919-5 0  9994","COUNTRY_CODE":"US","ARG_OF_PERICENTER":"67.8230","MEAN_ELEMENT_THEORY":"SGP4","APOAPSIS":"548.535"},{"ELEMENT_SET_NO":"999","CLASSIFICATION_TYPE":"U","ECCENTRICITY":"0.00018610","EPOCH":"2021-10-16T01:07:53.184576","GP_ID":"187322456","TLE_LINE2":"2 45398  53.0531 154.6327 0001861  70.4493 289.6697 15.06383183 87751","LAUNCH_DATE":"2020-03-18","REF_FRAME":"TEME","MEAN_ANOMALY":"289.6697","OBJECT_TYPE":"PAYLOAD","APOAPSIS":"548.554","MEAN_ELEMENT_THEORY":"SGP4","ARG_OF_PERICENTER":"70.4493","COUNTRY_CODE":"US","TLE_LINE1":"1 45398U 20019AQ  21289.04714334 -.00000234  00000-0  31701-5 0  9996","MEAN_MOTION":"15.06383183","MEAN_MOTION_DOT":"-0.00000234","PERIAPSIS":"545.976","SITE":"AFETR","CENTER_NAME":"EARTH","OBJECT_ID":"2020-019AQ","BSTAR":"0.00000317010000","DECAY_DATE":null,"OBJECT_NAME":"STARLINK-1312","PERIOD":"95.593","RA_OF_ASC_NODE":"154.6327","INCLINATION":"53.0531","RCS_SIZE":"LARGE","EPHEMERIS_TYPE":"0","TIME_SYSTEM":"UTC","SEMIMAJOR_AXIS":"6925.400","FILE":"3166151","MEAN_MOTION_DDOT":"0.0000000000000","REV_AT_EPOCH":"8775","NORAD_CAT_ID":"45398"},{"DECAY_DATE":null,"OBJECT_NAME":"STARLINK-1255","PERIOD":"95.593","RA_OF_ASC_NODE":"143.5540","INCLINATION":"53.0531","CENTER_NAME":"EARTH","SITE":"AFETR","OBJECT_ID":"2020-019AR","BSTAR":"0.00011148000000","SEMIMAJOR_AXIS":"6925.381","FILE":"3166610","MEAN_MOTION_DDOT":"0.0000000000000","REV_AT_EPOCH":"8798","NORAD_CAT_ID":"45399","EPHEMERIS_TYPE":"0","RCS_SIZE":"LARGE","TIME_SYSTEM":"UTC","LAUNCH_DATE":"2020-03-18","REF_FRAME":"TEME","MEAN_ANOMALY":"278.7855","OBJECT_TYPE":"PAYLOAD","CLASSIFICATION_TYPE":"U","ELEMENT_SET_NO":"999","ECCENTRICITY":"0.00019350","EPOCH":"2021-10-16T06:54:12.324960","TLE_LINE2":"2 45399  53.0531 143.5540 0001935  81.3353 278.7855 15.06389549 87986","GP_ID":"187355229","MEAN_MOTION_DOT":"0.00001379","PERIAPSIS":"545.906","APOAPSIS":"548.586","MEAN_ELEMENT_THEORY":"SGP4","ARG_OF_PERICENTER":"81.3353","TLE_LINE1":"1 45399U 20019AR  21289.28764265  .00001379  00000-0  11148-3 0  9992","COUNTRY_CODE":"US","MEAN_MOTION":"15.06389549"},{"MEAN_MOTION_DOT":"-0.00000254","PERIAPSIS":"545.960","APOAPSIS":"548.604","ARG_OF_PERICENTER":"74.3101","MEAN_ELEMENT_THEORY":"SGP4","TLE_LINE1":"1 45400U 20019AS  21289.30240814 -.00000254  00000-0  18227-5 0  9996","COUNTRY_CODE":"US","MEAN_MOTION":"15.06377776","LAUNCH_DATE":"2020-03-18","OBJECT_TYPE":"PAYLOAD","MEAN_ANOMALY":"285.8098","REF_FRAME":"TEME","CLASSIFICATION_TYPE":"U","ELEMENT_SET_NO":"999","ECCENTRICITY":"0.00019090","TLE_LINE2":"2 45400  53.0543 143.4920 0001909  74.3101 285.8098 15.06377776 87917","GP_ID":"187355481","EPOCH":"2021-10-16T07:15:28.063296","SEMIMAJOR_AXIS":"6925.417","FILE":"3166610","MEAN_MOTION_DDOT":"0.0000000000000","NORAD_CAT_ID":"45400","REV_AT_EPOCH":"8791","EPHEMERIS_TYPE":"0","RCS_SIZE":"LARGE","TIME_SYSTEM":"UTC","DECAY_DATE":null,"OBJECT_NAME":"STARLINK-1213","PERIOD":"95.594","INCLINATION":"53.0543","RA_OF_ASC_NODE":"143.4920","CENTER_NAME":"EARTH","SITE":"AFETR","OBJECT_ID":"2020-019AS","BSTAR":"0.00000182270000"},{"TIME_SYSTEM":"UTC","EPHEMERIS_TYPE":"0","RCS_SIZE":"LARGE","NORAD_CAT_ID":"45401","REV_AT_EPOCH":"8798","MEAN_MOTION_DDOT":"0.0000000000000","FILE":"3166610","SEMIMAJOR_AXIS":"6925.407","BSTAR":"0.00000505280000","OBJECT_ID":"2020-019AT","SITE":"AFETR","CENTER_NAME":"EARTH","INCLINATION":"53.0535","RA_OF_ASC_NODE":"143.5039","PERIOD":"95.593","OBJECT_NAME":"STARLINK-1256","DECAY_DATE":null,"MEAN_MOTION":"15.06380794","TLE_LINE1":"1 45401U 20019AT  21289.29871499 -.00000206  00000-0  50528-5 0  9991","COUNTRY_CODE":"US","ARG_OF_PERICENTER":"78.0015","MEAN_ELEMENT_THEORY":"SGP4","APOAPSIS":"548.500","PERIAPSIS":"546.045","MEAN_MOTION_DOT":"-0.00000206","GP_ID":"187356231","TLE_LINE2":"2 45401  53.0535 143.5039 0001772  78.0015 282.1172 15.06380794 87988","EPOCH":"2021-10-16T07:10:08.975136","ECCENTRICITY":"0.00017720","ELEMENT_SET_NO":"999","CLASSIFICATION_TYPE":"U","OBJECT_TYPE":"PAYLOAD","MEAN_ANOMALY":"282.1172","REF_FRAME":"TEME","LAUNCH_DATE":"2020-03-18"},{"RA_OF_ASC_NODE":"143.5146","INCLINATION":"53.0533","PERIOD":"95.593","OBJECT_NAME":"STARLINK-1257","DECAY_DATE":null,"BSTAR":"0.00001235400000","OBJECT_ID":"2020-019AU","SITE":"AFETR","CENTER_NAME":"EARTH","REV_AT_EPOCH":"8799","NORAD_CAT_ID":"45402","MEAN_MOTION_DDOT":"0.0000000000000","FILE":"3166610","SEMIMAJOR_AXIS":"6925.383","TIME_SYSTEM":"UTC","RCS_SIZE":"LARGE","EPHEMERIS_TYPE":"0","REF_FRAME":"TEME","OBJECT_TYPE":"PAYLOAD","MEAN_ANOMALY":"286.5941","LAUNCH_DATE":"2020-03-18","EPOCH":"2021-10-16T07:04:50.019168","GP_ID":"187354979","TLE_LINE2":"2 45402  53.0533 143.5146 0001638  73.5228 286.5941 15.06388750 87996","ECCENTRICITY":"0.00016380","CLASSIFICATION_TYPE":"U","ELEMENT_SET_NO":"999","PERIAPSIS":"546.114","MEAN_MOTION_DOT":"-0.00000098","MEAN_MOTION":"15.06388750","COUNTRY_CODE":"US","TLE_LINE1":"1 45402U 20019AU  21289.29502337 -.00000098  00000-0  12354-4 0  9997","ARG_OF_PERICENTER":"73.5228","MEAN_ELEMENT_THEORY":"SGP4","APOAPSIS":"548.382"},{"RCS_SIZE":"LARGE","EPHEMERIS_TYPE":"0","TIME_SYSTEM":"UTC","SEMIMAJOR_AXIS":"6925.374","FILE":"3166610","MEAN_MOTION_DDOT":"0.0000000000000","NORAD_CAT_ID":"45403","REV_AT_EPOCH":"8798","SITE":"AFETR","CENTER_NAME":"EARTH","OBJECT_ID":"2020-019AV","BSTAR":"0.00000355870000","DECAY_DATE":null,"OBJECT_NAME":"STARLINK-1259","PERIOD":"95.593","INCLINATION":"53.0540","RA_OF_ASC_NODE":"143.4561","APOAPSIS":"548.364","MEAN_ELEMENT_THEORY":"SGP4","ARG_OF_PERICENTER":"83.1764","TLE_LINE1":"1 45403U 20019AV  21289.30976488 -.00000229  00000-0  35587-5 0  9992","COUNTRY_CODE":"US","MEAN_MOTION":"15.06391689","MEAN_MOTION_DOT":"-0.00000229","PERIAPSIS":"546.114","ELEMENT_SET_NO":"999","CLASSIFICATION_TYPE":"U","ECCENTRICITY":"0.00016250","TLE_LINE2":"2 45403  53.0540 143.4561 0001625  83.1764 276.9410 15.06391689 87981","GP_ID":"187354730","EPOCH":"2021-10-16T07:26:03.685632","LAUNCH_DATE":"2020-03-18","MEAN_ANOMALY":"276.9410","OBJECT_TYPE":"PAYLOAD","REF_FRAME":"TEME"},{"BSTAR":"-0.00001887300000","SITE":"AFETR","CENTER_NAME":"EARTH","OBJECT_ID":"2020-019AW","OBJECT_NAME":"STARLINK-1260","PERIOD":"95.593","INCLINATION":"53.0526","RA_OF_ASC_NODE":"143.4028","DECAY_DATE":null,"TIME_SYSTEM":"UTC","RCS_SIZE":"LARGE","EPHEMERIS_TYPE":"0","MEAN_MOTION_DDOT":"0.0000000000000","NORAD_CAT_ID":"45404","REV_AT_EPOCH":"8789","SEMIMAJOR_AXIS":"6925.386","FILE":"3166610","ECCENTRICITY":"0.00018820","TLE_LINE2":"2 45404  53.0526 143.4028 0001882  80.5057 279.6145 15.06387805 87895","GP_ID":"187355981","EPOCH":"2021-10-16T07:41:59.183232","ELEMENT_SET_NO":"999","CLASSIFICATION_TYPE":"U","MEAN_ANOMALY":"279.6145","OBJECT_TYPE":"PAYLOAD","REF_FRAME":"TEME","LAUNCH_DATE":"2020-03-18","TLE_LINE1":"1 45404U 20019AW  21289.32082388 -.00000563  00000-0 -18873-4 0  9992","COUNTRY_CODE":"US","MEAN_MOTION":"15.06387805","APOAPSIS":"548.554","ARG_OF_PERICENTER":"80.5057","MEAN_ELEMENT_THEORY":"SGP4","PERIAPSIS":"545.948","MEAN_MOTION_DOT":"-0.00000563"},{"EPOCH":"2021-10-16T07:20:46.245120","GP_ID":"187355732","TLE_LINE2":"2 45405  53.0544 143.4771 0001776  79.1330 280.9858 15.06377708 87898","ECCENTRICITY":"0.00017760","CLASSIFICATION_TYPE":"U","ELEMENT_SET_NO":"999","REF_FRAME":"TEME","OBJECT_TYPE":"PAYLOAD","MEAN_ANOMALY":"280.9858","LAUNCH_DATE":"2020-03-18","MEAN_MOTION":"15.06377708","TLE_LINE1":"1 45405U 20019AX  21289.30609080 -.00000439  00000-0 -10589-4 0  9993","COUNTRY_CODE":"US","ARG_OF_PERICENTER":"79.1330","MEAN_ELEMENT_THEORY":"SGP4","APOAPSIS":"548.512","PERIAPSIS":"546.052","MEAN_MOTION_DOT":"-0.00000439","BSTAR":"-0.00001058900000","OBJECT_ID":"2020-019AX","CENTER_NAME":"EARTH","SITE":"AFETR","RA_OF_ASC_NODE":"143.4771","INCLINATION":"53.0544","PERIOD":"95.594","OBJECT_NAME":"STARLINK-1263","DECAY_DATE":null,"TIME_SYSTEM":"UTC","EPHEMERIS_TYPE":"0","RCS_SIZE":"LARGE","REV_AT_EPOCH":"8789","NORAD_CAT_ID":"45405","MEAN_MOTION_DDOT":"0.0000000000000","FILE":"3166610","SEMIMAJOR_AXIS":"6925.417"}];
